LEMUR-2-VLADIMIR        
1 43746U 18096AD  21363.17783124  .00015924  00000+0  46954-3 0  9997
2 43746  97.3792  82.9379 0015900 298.3318  61.6321 15.34967829172148
LEMUR-2-CHRISTINAHOLT   
1 43882U 18111G   21363.51389804  .00001802  00000+0  15763-3 0  9995
2 43882  97.6828 268.7970 0011475 159.0449 201.1246 14.97951568164312
LEMUR-2-TINYKEV         
1 43883U 18111H   21363.52705531  .00002405  00000+0  20797-3 0  9999
2 43883  97.6814 268.9536 0011319 162.8919 197.2687 14.98077542164326
LEMUR-2-REMY-COLTON     
1 43884U 18111J   21363.58974884  .00002530  00000+0  21757-3 0  9991
2 43884  97.6846 269.3405 0010876 161.7030 198.4586 14.98260958162358
LEMUR-2-GUSTAVO         
1 43885U 18111K   21363.51196323  .00002373  00000+0  20546-3 0  9999
2 43885  97.6847 269.0812 0011340 156.3397 203.8349 14.98044191164328
LEMUR-2-ZO              
1 43886U 18111L   21363.51473778  .00002333  00000+0  20164-3 0  9994
2 43886  97.6854 269.3086 0011212 155.6411 204.5343 14.98137016164332
LEMUR-2-NATALIEMURRAY   
1 43887U 18111M   21363.56135339  .00003692  00000+0  31507-3 0  9990
2 43887  97.6849 269.5830 0012094 153.5935 206.5906 14.98256215164355
LEMUR-2-SARAHBETTYBOO   
1 43888U 18111N   21363.32658689  .00002225  00000+0  19181-3 0  9998
2 43888  97.6857 269.5502 0011149 156.8874 203.2852 14.98285592164320
LEMUR-2-DAISY-HARPER    
1 43889U 18111P   21363.53416070  .00002417  00000+0  20748-3 0  9992
2 43889  97.6855 269.9053 0011248 157.2665 202.9057 14.98364708164350
LEMUR-2-JOHANLORAN      
1 44084U 19018G   21363.12062227  .00014779  00000+0  53673-3 0  9990
2 44084  97.3413  61.8310 0011670   3.4508 356.6811 15.28333604152714
LEMUR-2-BEAUDACIOUS     
1 44085U 19018H   21363.12830720  .00013408  00000+0  50122-3 0  9996
2 44085  97.3404  61.3310 0011894   6.1705 353.9678 15.27399952152681
LEMUR-2-ELHAM           
1 44086U 19018J   21363.47748408  .00012769  00000+0  46291-3 0  9997
2 44086  97.3431  62.5296 0011625   2.8677 357.2627 15.28426804152781
LEMUR-2-VICTOR-ANDREW   
1 44087U 19018K   21363.16188036  .00013725  00000+0  49388-3 0  9992
2 44087  97.3434  62.3586 0011559   4.6305 355.5039 15.28653865152742
LEMUR-2-LILLYJO         
1 44396U 19038L   21363.53723888  .00007499  00000+0  39603-3 0  9998
2 44396  97.6022 327.2072 0023217 358.4729   1.6428 15.15577535137310
LEMUR-2-WANLI           
1 44402U 19038S   21363.54683851  .00006289  00000+0  33645-3 0  9998
2 44402  97.6035 327.1243 0023437 359.2989   0.8206 15.15182501137312
LEMUR-2-MORAG           
1 44403U 19038T   21363.57847729  .00007608  00000+0  40085-3 0  9990
2 44403  97.6074 327.7993 0022252   1.9379 358.1936 15.15671514137330
LEMUR-2-DUSTINTHEWIND   
1 44405U 19038V   21363.46555374  .00006763  00000+0  36273-3 0  9997
2 44405  97.6026 326.9594 0023334 358.7053   1.4114 15.15066436137305
LEMUR-2-ALEX-MADDY      
1 44407U 19038X   21363.54904913  .00004907  00000+0  26974-3 0  9990
2 44407  97.6098 327.1656 0022745   4.9911 355.1543 15.14346122137279
LEMUR-2-EJATTA          
1 44409U 19038Z   21363.48051285  .00007452  00000+0  39110-3 0  9994
2 44409  97.6017 327.3462 0022947 357.2609   2.8494 15.15802824137336
LEMUR-2-GREGROBINSON    
1 44411U 19038AB  21363.42670861  .00007200  00000+0  38002-3 0  9998
2 44411  97.6082 327.6429 0022403   4.1285 356.0128 15.15625618136973
LEMUR-2-YNDRD           
1 44413U 19038AD  21363.55293385  .00004799  00000+0  26460-3 0  9991
2 44413  97.6086 327.0558 0022664   4.7882 355.3561 15.14246834137280
LEMUR-2-JPGSQUARED      
1 44855U 19089D   21363.45817504  .00005387  00000+0  42588-3 0  9994
2 44855  36.9673  26.8986 0006221 271.2221  88.7808 15.00444987112453
LEMUR-2-HIMOMANDDAD     
1 44860U 19089J   21363.47768765  .00004653  00000+0  37033-3 0  9990
2 44860  36.9671  27.9608 0006482 265.0222  94.9780 15.00283044112320
LEMUR-2-PAPPY           
1 44861U 19089K   21363.45765562  .00004509  00000+0  35899-3 0  9999
2 44861  36.9669  27.7931 0006509 266.8557  93.1440 15.00288030112385
LEMUR-2-THEODOSIA       
1 44863U 19089M   21363.42896533  .00005377  00000+0  42600-3 0  9993
2 44863  36.9666  27.5525 0006550 269.4144  90.5847 15.00365715112296
LEMUR-2-ETHANOAKES      
1 46298U 20061AC  21363.44741946  .00007088  00000+0  40222-3 0  9997
2 46298  97.4719  73.2555 0002623  88.0016 272.1516 15.13247834 72776
LEMUR-2-OSCARLATOR      
1 46299U 20061AD  21363.19076317  .00007594  00000+0  43121-3 0  9996
2 46299  97.4723  73.0036 0002587  87.4983 272.6545 15.13200924 72764
LEMUR-2-SCHMIDTFALL     
1 46315U 20061AV  21363.19294562  .00007599  00000+0  42600-3 0  9995
2 46315  97.4728  73.3219 0003377  61.5224 298.6347 15.13659732 72823
LEMUR-2-DJUPROERA       
1 46316U 20061AW  21363.43817485  .00007961  00000+0  44447-3 0  9992
2 46316  97.4720  73.5761 0003429  57.9983 302.1581 15.13790968 72861
LEMUR-2-SQUAREJAWS      
1 46317U 20061AX  21363.18048611  .00007600  00000+0  42507-3 0  9997
2 46317  97.4721  73.3167 0003381  58.0163 302.1397 15.13745862 72835
LEMUR-2-URSA-AVION      
1 46318U 20061AY  21363.43666756  .00007614  00000+0  42591-3 0  9990
2 46318  97.4720  73.5848 0003352  53.9922 306.1620 15.13737403 72877
LEMUR-2-SLICERS         
1 46500U 20068Q   21363.39979288  .00003271  00000+0  24511-3 0  9999
2 46500  97.7055 299.2963 0013512 142.1998 218.0172 15.03333865 68547
LEMUR-2-DAYWZAGOODDAY   
1 46501U 20068R   21363.38262191  .00004879  00000+0  36039-3 0  9990
2 46501  97.7055 299.3325 0012853 145.8682 214.3371 15.03640429 68534
LEMUR-2-SUSURRUS        
1 46502U 20068S   21363.60065441  .00002798  00000+0  21040-3 0  9999
2 46502  97.7069 299.4907 0013045 143.6280 216.5828 15.03328841 68577
LEMUR-2-NICHOL          
1 46503U 20068T   21363.36809416  .00005168  00000+0  38327-3 0  9991
2 46503  97.7036 299.1668 0013026 154.3082 205.8790 15.03461289 68530
LEMUR-2-OZARAK          
1 46908U 20081D   21363.48972814  .00002685  00000+0  21871-3 0  9998
2 46908  36.9007 152.1329 0005807 112.8479 247.2881 14.99858663 62626
LEMUR-2-JINDRA          
1 46909U 20081E   21363.52201077  .00002887  00000+0  23336-3 0  9992
2 46909  36.9009 151.4678 0005946 112.8154 247.3210 15.00072030 62640
LEMUR-2-WALLACE         
1 46910U 20081F   21363.52205527  .00003641  00000+0  29295-3 0  9997
2 46910  36.8999 151.4633 0006199 114.3514 245.7877 15.00030039 62631
LEMUR-2-JEREMIAH        
1 46911U 20081G   21363.63790025  .00001803  00000+0  14800-3 0  9996
2 46911  36.9017 150.5433 0006697 106.8970 253.1620 15.00096711 62668
LEMUR-2-DJARA           
1 46926U 98067RW  21363.45837083  .00962423  51779-3  11939-2 0  9993
2 46926  51.6345  55.7707 0007462  38.0238 322.1301 16.07184175 65549
LEMUR-2-NEVA            
1 47450U 21006AP  21363.61121764  .00005583  00000+0  30823-3 0  9991
2 47450  97.4715  61.4433 0012622 142.9643 217.2462 15.14268485 51574
LEMUR-2-SAOIRSEDH5GUO   
1 47453U 21006AS  21363.40833230  .00006071  00000+0  33685-3 0  9991
2 47453  97.4740  61.2387 0011245 144.3343 215.8642 15.14067005 51539
LEMUR-2-NALLYWACKER     
1 47457U 21006AW  21363.36200544  .00006385  00000+0  35203-3 0  9992
2 47457  97.4716  61.1835 0012279 143.2129 216.9948 15.14263675 51533
LEMUR-2-MANGO1          
1 47493U 21006CJ  21363.61480902  .00004779  00000+0  26755-3 0  9995
2 47493  97.4659  61.0426 0011686 144.6244 215.5765 15.13848059 51567
LEMUR-2-RUAIRI-EILIDH   
1 47511U 21006DC  21363.60026341  .00005234  00000+0  29648-3 0  9999
2 47511  97.4653  60.7534 0009182 145.9082 214.2741 15.13406848 51544
LEMUR-2-JENNIFERSONG    
1 47525U 21006DR  21363.42050486  .00005760  00000+0  31776-3 0  9990
2 47525  97.4672  61.0640 0012376 143.5299 216.6778 15.14283967 51547
LEMUR-2-CHANTAL         
1 47529U 21006DV  21363.38995652  .00005619  00000+0  32147-3 0  9998
2 47529  97.4666  60.4863 0008496 147.6553 212.5201 15.13020812 52465
LEMUR-2-NOOBNOOB        
1 47538U 21006DY  21363.12508171  .00006203  00000+0  34492-3 0  9991
2 47538  97.4729  60.9571 0012009 145.1949 215.0070 15.13970358 51496
LEMUR-2-AMANDA-SVANTE   
1 48269U 21034B   21363.44996888  .00001987  00000+0  23203-3 0  9997
2 48269  97.7693  73.7342 0002122 269.5276  90.5696 14.86254796 36277
LEMUR-2-SPECIAL-K       
1 48273U 21034F   21363.58887654  .00002122  00000+0  24762-3 0  9990
2 48273  97.7694  73.8591 0002103 263.7587  96.3389 14.86202920 36309
LEMUR-2-JACKSON         
1 48885U 21059G   21363.60025003  .00008352  00000+0  47279-3 0  9990
2 48885  97.5322 129.7891 0007637 338.6785  21.4126 15.13265793 28236
LEMUR-2-ANNABANANA      
1 48923U 21059AW  21363.35829694  .00007851  00000+0  43425-3 0  9995
2 48923  97.5269 129.6714 0011133 324.2105  35.8380 15.14090757 28211
LEMUR-2-JOHN-TREIRES    
1 48925U 21059AY  21363.30649136  .00008434  00000+0  46013-3 0  9997
2 48925  97.5311 129.8271 0014072 327.1203  32.9153 15.14523509 28219
LEMUR-2-AC-CUBED        
1 48927U 21059BA  21363.34828730  .00006620  00000+0  36052-3 0  9999
2 48927  97.5289 129.8707 0016423 330.1041  29.9251 15.14641390 28220
LEMUR-2-MERIMA          
1 48929U 21059BC  21363.59948101  .00006548  00000+0  35479-3 0  9994
2 48929  97.5264 130.1024 0016369 330.4068  29.6237 15.14828111 28266
LEMUR-2-CARLSANTAMARI   
1 48959U 21059CJ  21363.35651131  .00008283  00000+0  44219-3 0  9995
2 48959  97.5280 129.9938 0015983 336.7493  23.3014 15.15279258 28233
